[{"OBJECT_NAME":"STARLINK-31242","OBJECT_ID":"2024-019M","EPOCH":"2026-03-09T13:36:32.205024","MEAN_MOTION":15.27574666,"ECCENTRICITY":0.0001672,"INCLINATION":43.0025,"RA_OF_ASC_NODE":249.6197,"ARG_OF_PERICENTER":266.6123,"MEAN_ANOMALY":93.4538,"EPHEMERIS_TYPE":0,"CLASSIFICATION_TYPE":"U","NORAD_CAT_ID":58864,"ELEMENT_SET_NO":999,"REV_AT_EPOCH":11906,"BSTAR":0.0001198,"MEAN_MOTION_DOT":3.035e-5,"MEAN_MOTION_DDOT":0},{"OBJECT_NAME":"OBJECT P","OBJECT_ID":"2018-099P","EPOCH":"2026-03-09T16:35:55.790016","MEAN_MOTION":15.30834106,"ECCENTRICITY":0.00076856,"INCLINATION":97.4366,"RA_OF_ASC_NODE":131.9195,"ARG_OF_PERICENTER":276.7627,"MEAN_ANOMALY":83.2739,"EPHEMERIS_TYPE":0,"CLASSIFICATION_TYPE":"U","NORAD_CAT_ID":43771,"ELEMENT_SET_NO":999,"REV_AT_EPOCH":39830,"BSTAR":0.00063632878,"MEAN_MOTION_DOT":0.00018926,"MEAN_MOTION_DDOT":0}]
